{"type": "FeatureCollection", "features": [ {"type": "Feature", "properties": {"norad_id": 66504, "name": "STARLINK-35916", "group": "last-30-days", "lat": 19.186756390212942, "lon": -84.37228679174231, "alt_km": 441.9220875520032, "timestamp": "2025-12-14T07:33:18.186079+00:00", "meta": {"OBJECT_NAME": "STARLINK-35916", "OBJECT_ID": "2025-263V", "EPOCH": "2025-12-12T17:33:48.907584", "MEAN_MOTION": 15.40710087, "ECCENTRICITY": 0.00029138, "INCLINATION": 43.0006, "RA_OF_ASC_NODE": 126.6799, "ARG_OF_PERICENTER": 281.8112, "MEAN_ANOMALY": 78.2418, "EPHEMERIS_TYPE": 0, "CLASSIFICATION_TYPE": "U", "NORAD_CAT_ID": 66504, "ELEMENT_SET_NO": 999, "REV_AT_EPOCH": 554, "BSTAR": 0.0014947011, "MEAN_MOTION_DOT": 0.00062674, "MEAN_MOTION_DDOT": 0}, "tle": {"line1": "1 66504U 25263V   25346.73181606  .00062674  00000+0  14947-2 0  9992", "line2": "2 66504  43.0006 126.6799 0002913 281.8112  78.2418 15.40710087  5541"}}, "geometry": {"type": "Point", "coordinates": [-84.37228679174231, 19.186756390212942]}}, {"type": "Feature", "properties": {"norad_id": 66505, "name": "STARLINK-34766", "group": "last-30-days", "lat": 36.859227475140045, "lon": -117.7041946603129, "alt_km": 409.06258112895375, "timestamp": "2025-12-14T07:33:18.186089+00:00", "meta": {"OBJECT_NAME": "STARLINK-34766", "OBJECT_ID": "2025-263W", "EPOCH": "2025-12-12T17:56:57.882624", "MEAN_MOTION": 15.50613801, "ECCENTRICITY": 0.00016181, "INCLINATION": 42.9974, "RA_OF_ASC_NODE": 125.0394, "ARG_OF_PERICENTER": 278.9286, "MEAN_ANOMALY": 81.1391, "EPHEMERIS_TYPE": 0, "CLASSIFICATION_TYPE": "U", "NORAD_CAT_ID": 66505, "ELEMENT_SET_NO": 999, "REV_AT_EPOCH": 556, "BSTAR": 0.0019225717, "MEAN_MOTION_DOT": 0.00114249, "MEAN_MOTION_DDOT": 0}, "tle": {"line1": "1 66505U 25263W   25346.74789216  .00114249  00000+0  19226-2 0  9996", "line2": "2 66505  42.9974 125.0394 0001618 278.9286  81.1391 15.50613801  5560"}}, "geometry": {"type": "Point", "coordinates": [-117.7041946603129, 36.859227475140045]}}, {"type": "Feature", "properties": {"norad_id": 66506, "name": "STARLINK-34765", "group": "last-30-days", "lat": 36.289806606722046, "lon": -116.121364430222, "alt_km": 409.5166447874208, "timestamp": "2025-12-14T07:33:18.186102+00:00", "meta": {"OBJECT_NAME": "STARLINK-34765", "OBJECT_ID": "2025-263X", "EPOCH": "2025-12-13T09:24:02.209536", "MEAN_MOTION": 15.50662448, "ECCENTRICITY": 0.00019802, "INCLINATION": 43.0016, "RA_OF_ASC_NODE": 121.276, "ARG_OF_PERICENTER": 266.2517, "MEAN_ANOMALY": 93.8117, "EPHEMERIS_TYPE": 0, "CLASSIFICATION_TYPE": "U", "NORAD_CAT_ID": 66506, "ELEMENT_SET_NO": 999, "REV_AT_EPOCH": 566, "BSTAR": 0.0020838032, "MEAN_MOTION_DOT": 0.00124234, "MEAN_MOTION_DDOT": 0}, "tle": {"line1": "1 66506U 25263X   25347.39169224  .00124234  00000+0  20838-2 0  9996", "line2": "2 66506  43.0016 121.2760 0001980 266.2517  93.8117 15.50662448  5662"}}, "geometry": {"type": "Point", "coordinates": [-116.121364430222, 36.289806606722046]}}, {"type": "Feature", "properties": {"norad_id": 66507, "name": "STARLINK-34767", "group": "last-30-days", "lat": 27.155032114338166, "lon": 149.4584261853246, "alt_km": 440.23933665846107, "timestamp": "2025-12-14T07:33:18.186112+00:00", "meta": {"OBJECT_NAME": "STARLINK-34767", "OBJECT_ID": "2025-263Y", "EPOCH": "2025-12-13T14:00:03.000384", "MEAN_MOTION": 15.40666054, "ECCENTRICITY": 0.00015184, "INCLINATION": 42.9996, "RA_OF_ASC_NODE": 120.2759, "ARG_OF_PERICENTER": 276.4158, "MEAN_ANOMALY": 24.0017, "EPHEMERIS_TYPE": 0, "CLASSIFICATION_TYPE": "U", "NORAD_CAT_ID": 66507, "ELEMENT_SET_NO": 999, "REV_AT_EPOCH": 577, "BSTAR": 0.00068396177, "MEAN_MOTION_DOT": 0.00028341, "MEAN_MOTION_DDOT": 0}, "tle": {"line1": "1 66507U 25263Y   25347.58336806  .00028341  00000+0  68396-3 0  9994", "line2": "2 66507  42.9996 120.2759 0001518 276.4158  24.0017 15.40666054  5779"}}, "geometry": {"type": "Point", "coordinates": [149.4584261853246, 27.155032114338166]}}, {"type": "Feature", "properties": {"norad_id": 66508, "name": "STARLINK-35608", "group": "last-30-days", "lat": 42.94905792489716, "lon": -151.41816075764203, "alt_km": 437.08329487926585, "timestamp": "2025-12-14T07:33:18.186122+00:00", "meta": {"OBJECT_NAME": "STARLINK-35608", "OBJECT_ID": "2025-263Z", "EPOCH": "2025-12-13T14:00:03.000384", "MEAN_MOTION": 15.44289027, "ECCENTRICITY": 0.00011833, "INCLINATION": 42.9997, "RA_OF_ASC_NODE": 120.1691, "ARG_OF_PERICENTER": 269.261, "MEAN_ANOMALY": 75.7736, "EPHEMERIS_TYPE": 0, "CLASSIFICATION_TYPE": "U", "NORAD_CAT_ID": 66508, "ELEMENT_SET_NO": 999, "REV_AT_EPOCH": 577, "BSTAR": -0.048715883, "MEAN_MOTION_DOT": -0.02041588, "MEAN_MOTION_DDOT": 0}, "tle": {"line1": "1 66508U 25263Z   25347.58336806 -.02041588  00000+0 -48716-1 0  9999", "line2": "2 66508  42.9997 120.1691 0001183 269.2610  75.7736 15.44289027  5772"}}, "geometry": {"type": "Point", "coordinates": [-151.41816075764203, 42.94905792489716]}}, {"type": "Feature", "properties": {"norad_id": 66509, "name": "STARLINK-35598", "group": "last-30-days", "lat": 27.85733541837358, "lon": -98.72385031919173, "alt_km": 410.8705887989945, "timestamp": "2025-12-14T07:33:18.186132+00:00", "meta": {"OBJECT_NAME": "STARLINK-35598", "OBJECT_ID": "2025-263AA", "EPOCH": "2025-12-13T15:30:37.328832", "MEAN_MOTION": 15.50671075, "ECCENTRICITY": 0.00020834, "INCLINATION": 43.0026, "RA_OF_ASC_NODE": 119.738, "ARG_OF_PERICENTER": 262.3842, "MEAN_ANOMALY": 97.6781, "EPHEMERIS_TYPE": 0, "CLASSIFICATION_TYPE": "U", "NORAD_CAT_ID": 66509, "ELEMENT_SET_NO": 999, "REV_AT_EPOCH": 570, "BSTAR": 0.0016256371, "MEAN_MOTION_DOT": 0.00096529, "MEAN_MOTION_DDOT": 0}, "tle": {"line1": "1 66509U 25263AA  25347.64626538  .00096529  00000+0  16256-2 0  9997", "line2": "2 66509  43.0026 119.7380 0002083 262.3842  97.6781 15.50671075  5709"}}, "geometry": {"type": "Point", "coordinates": [-98.72385031919173, 27.85733541837358]}}, {"type": "Feature", "properties": {"norad_id": 66510, "name": "STARLINK-35600", "group": "last-30-days", "lat": 30.919649877031155, "lon": -104.157351101202, "alt_km": 409.99262035189713, "timestamp": "2025-12-14T07:33:18.186142+00:00", "meta": {"OBJECT_NAME": "STARLINK-35600", "OBJECT_ID": "2025-263AB", "EPOCH": "2025-12-13T15:32:06.277632", "MEAN_MOTION": 15.50700749, "ECCENTRICITY": 0.00016267, "INCLINATION": 42.9998, "RA_OF_ASC_NODE": 119.7473, "ARG_OF_PERICENTER": 255.3171, "MEAN_ANOMALY": 104.7509, "EPHEMERIS_TYPE": 0, "CLASSIFICATION_TYPE": "U", "NORAD_CAT_ID": 66510, "ELEMENT_SET_NO": 999, "REV_AT_EPOCH": 570, "BSTAR": 0.0019497969, "MEAN_MOTION_DOT": 0.00116261, "MEAN_MOTION_DDOT": 0}, "tle": {"line1": "1 66510U 25263AB  25347.64729488  .00116261  00000+0  19498-2 0  9994", "line2": "2 66510  42.9998 119.7473 0001626 255.3171 104.7509 15.50700749  5708"}}, "geometry": {"type": "Point", "coordinates": [-104.157351101202, 30.919649877031155]}}, {"type": "Feature", "properties": {"norad_id": 66511, "name": "STARLINK-35444", "group": "last-30-days", "lat": 28.97424037664528, "lon": -100.62391299149327, "alt_km": 410.57364522218904, "timestamp": "2025-12-14T07:33:18.186152+00:00", "meta": {"OBJECT_NAME": "STARLINK-35444", "OBJECT_ID": "2025-263AC", "EPOCH": "2025-12-13T15:31:06.927744", "MEAN_MOTION": 15.50608738, "ECCENTRICITY": 0.00012352, "INCLINATION": 43.0005, "RA_OF_ASC_NODE": 119.7422, "ARG_OF_PERICENTER": 276.5488, "MEAN_ANOMALY": 83.5232, "EPHEMERIS_TYPE": 0, "CLASSIFICATION_TYPE": "U", "NORAD_CAT_ID": 66511, "ELEMENT_SET_NO": 999, "REV_AT_EPOCH": 570, "BSTAR": 0.0019691073, "MEAN_MOTION_DOT": 0.00117042, "MEAN_MOTION_DDOT": 0}, "tle": {"line1": "1 66511U 25263AC  25347.64660796  .00117042  00000+0  19691-2 0  9994", "line2": "2 66511  43.0005 119.7422 0001235 276.5488  83.5232 15.50608738  5708"}}, "geometry": {"type": "Point", "coordinates": [-100.62391299149327, 28.97424037664528]}}, {"type": "Feature", "properties": {"norad_id": 66512, "name": "STARLINK-35366", "group": "last-30-days", "lat": 26.832433366724864, "lon": -97.05391013105397, "alt_km": 410.824131039014, "timestamp": "2025-12-14T07:33:18.186163+00:00", "meta": {"OBJECT_NAME": "STARLINK-35366", "OBJECT_ID": "2025-263AD", "EPOCH": "2025-12-13T15:30:07.687584", "MEAN_MOTION": 15.50605156, "ECCENTRICITY": 0.00013482, "INCLINATION": 43.0008, "RA_OF_ASC_NODE": 119.7363, "ARG_OF_PERICENTER": 263.4327, "MEAN_ANOMALY": 96.638, "EPHEMERIS_TYPE": 0, "CLASSIFICATION_TYPE": "U", "NORAD_CAT_ID": 66512, "ELEMENT_SET_NO": 999, "REV_AT_EPOCH": 570, "BSTAR": 0.0019458907, "MEAN_MOTION_DOT": 0.00115622, "MEAN_MOTION_DDOT": 0}, "tle": {"line1": "1 66512U 25263AD  25347.64592231  .00115622  00000+0  19459-2 0  9997", "line2": "2 66512  43.0008 119.7363 0001348 263.4327  96.6380 15.50605156  5708"}}, "geometry": {"type": "Point", "coordinates": [-97.05391013105397, 26.832433366724864]}}, {"type": "Feature", "properties": {"norad_id": 66513, "name": "STARLINK-35692", "group": "last-30-days", "lat": 30.11138075986868, "lon": -102.64239391184357, "alt_km": 412.24170777406016, "timestamp": "2025-12-14T07:33:18.186175+00:00", "meta": {"OBJECT_NAME": "STARLINK-35692", "OBJECT_ID": "2025-263AE", "EPOCH": "2025-12-13T15:31:36.670080", "MEAN_MOTION": 15.50585372, "ECCENTRICITY": 0.00039607, "INCLINATION": 43.0052, "RA_OF_ASC_NODE": 119.7453, "ARG_OF_PERICENTER": 277.7017, "MEAN_ANOMALY": 82.3393, "EPHEMERIS_TYPE": 0, "CLASSIFICATION_TYPE": "U", "NORAD_CAT_ID": 66513, "ELEMENT_SET_NO": 999, "REV_AT_EPOCH": 570, "BSTAR": 0.0012705925, "MEAN_MOTION_DOT": 0.00074947, "MEAN_MOTION_DDOT": 0}, "tle": {"line1": "1 66513U 25263AE  25347.64695220  .00074947  00000+0  12706-2 0  9992", "line2": "2 66513  43.0052 119.7453 0003960 277.7017  82.3393 15.50585372  5707"}}, "geometry": {"type": "Point", "coordinates": [-102.64239391184357, 30.11138075986868]}}]}